{"type": "FeatureCollection", "features": [ {"type": "Feature", "properties": {"norad_id": 43683, "name": "BEIDOU-3 G1 (C59)", "group": "gnss", "lat": -2.5034299690873865, "lon": -0.9542939887794255, "alt_km": 35794.10055755667, "timestamp": "2025-12-06T09:34:17.157467+00:00", "meta": {"OBJECT_NAME": "BEIDOU-3 G1 (C59)", "OBJECT_ID": "2018-085A", "EPOCH": "2025-12-05T21:12:36.853632", "MEAN_MOTION": 1.00272826, "ECCENTRICITY": 0.00019241, "INCLINATION": 2.5895, "RA_OF_ASC_NODE": 103.1577, "ARG_OF_PERICENTER": 64.9627, "MEAN_ANOMALY": 5.0228, "EPHEMERIS_TYPE": 0, "CLASSIFICATION_TYPE": "U", "NORAD_CAT_ID": 43683, "ELEMENT_SET_NO": 999, "REV_AT_EPOCH": 2612, "BSTAR": 0, "MEAN_MOTION_DOT": -2.69e-06, "MEAN_MOTION_DDOT": 0}, "tle": {"line1": "1 43683U 18085A   25339.88375988 -.00000269  00000+0  00000+0 0  9990", "line2": "2 43683   2.5895 103.1577 0001924  64.9627   5.0228  1.00272826 26125"}}, "geometry": {"type": "Point", "coordinates": [-0.9542939887794255, -2.5034299690873865]}}, {"type": "Feature", "properties": {"norad_id": 43687, "name": "COSMOS 2529 (757)", "group": "gnss", "lat": 53.83172959484798, "lon": -119.670042397989, "alt_km": 19142.12649772775, "timestamp": "2025-12-06T09:34:17.157482+00:00", "meta": {"OBJECT_NAME": "COSMOS 2529 (757)", "OBJECT_ID": "2018-086A", "EPOCH": "2025-12-03T00:44:36.468960", "MEAN_MOTION": 2.13101888, "ECCENTRICITY": 0.00072932, "INCLINATION": 64.2917, "RA_OF_ASC_NODE": 199.2166, "ARG_OF_PERICENTER": 254.4618, "MEAN_ANOMALY": 105.5545, "EPHEMERIS_TYPE": 0, "CLASSIFICATION_TYPE": "U", "NORAD_CAT_ID": 43687, "ELEMENT_SET_NO": 999, "REV_AT_EPOCH": 5510, "BSTAR": 0, "MEAN_MOTION_DOT": 1.06e-06, "MEAN_MOTION_DDOT": 0}, "tle": {"line1": "1 43687U 18086A   25337.03097765  .00000106  00000+0  00000+0 0  9993", "line2": "2 43687  64.2917 199.2166 0007293 254.4618 105.5545  2.13101888 55102"}}, "geometry": {"type": "Point", "coordinates": [-119.670042397989, 53.83172959484798]}}, {"type": "Feature", "properties": {"norad_id": 43706, "name": "BEIDOU-3 M17 (C36)", "group": "gnss", "lat": -53.598842799674216, "lon": 87.3989408436745, "alt_km": 21521.193891013794, "timestamp": "2025-12-06T09:34:17.157493+00:00", "meta": {"OBJECT_NAME": "BEIDOU-3 M17 (C36)", "OBJECT_ID": "2018-093A", "EPOCH": "2025-12-03T14:10:37.280064", "MEAN_MOTION": 1.86228161, "ECCENTRICITY": 0.00063465, "INCLINATION": 54.1727, "RA_OF_ASC_NODE": 188.9327, "ARG_OF_PERICENTER": 306.3477, "MEAN_ANOMALY": 234.3147, "EPHEMERIS_TYPE": 0, "CLASSIFICATION_TYPE": "U", "NORAD_CAT_ID": 43706, "ELEMENT_SET_NO": 999, "REV_AT_EPOCH": 4789, "BSTAR": 0, "MEAN_MOTION_DOT": 1.14e-06, "MEAN_MOTION_DDOT": 0}, "tle": {"line1": "1 43706U 18093A   25337.59070926  .00000114  00000+0  00000+0 0  9993", "line2": "2 43706  54.1727 188.9327 0006346 306.3477 234.3147  1.86228161 47892"}}, "geometry": {"type": "Point", "coordinates": [87.3989408436745, -53.598842799674216]}}, {"type": "Feature", "properties": {"norad_id": 43707, "name": "BEIDOU-3 M18 (C37)", "group": "gnss", "lat": -3.083489452160815, "lon": -173.39312525749767, "alt_km": 21511.465399906654, "timestamp": "2025-12-06T09:34:17.157507+00:00", "meta": {"OBJECT_NAME": "BEIDOU-3 M18 (C37)", "OBJECT_ID": "2018-093B", "EPOCH": "2025-12-04T06:09:34.457184", "MEAN_MOTION": 1.86226429, "ECCENTRICITY": 0.0006367, "INCLINATION": 54.1734, "RA_OF_ASC_NODE": 188.9019, "ARG_OF_PERICENTER": 351.3735, "MEAN_ANOMALY": 8.7081, "EPHEMERIS_TYPE": 0, "CLASSIFICATION_TYPE": "U", "NORAD_CAT_ID": 43707, "ELEMENT_SET_NO": 999, "REV_AT_EPOCH": 4790, "BSTAR": 0, "MEAN_MOTION_DOT": 1.06e-06, "MEAN_MOTION_DDOT": 0}, "tle": {"line1": "1 43707U 18093B   25338.25664881  .00000106  00000+0  00000+0 0  9998", "line2": "2 43707  54.1734 188.9019 0006367 351.3735   8.7081  1.86226429 47906"}}, "geometry": {"type": "Point", "coordinates": [-173.39312525749767, -3.083489452160815]}}, {"type": "Feature", "properties": {"norad_id": 43873, "name": "GPS BIII-1  (PRN 04)", "group": "gnss", "lat": -48.67858843559175, "lon": -28.99259830396691, "alt_km": 20126.14956179442, "timestamp": "2025-12-06T09:34:17.157521+00:00", "meta": {"OBJECT_NAME": "GPS BIII-1  (PRN 04)", "OBJECT_ID": "2018-109A", "EPOCH": "2025-12-05T19:33:38.688768", "MEAN_MOTION": 2.00553202, "ECCENTRICITY": 0.00371699, "INCLINATION": 55.5633, "RA_OF_ASC_NODE": 99.8204, "ARG_OF_PERICENTER": 194.6796, "MEAN_ANOMALY": 348.9989, "EPHEMERIS_TYPE": 0, "CLASSIFICATION_TYPE": "U", "NORAD_CAT_ID": 43873, "ELEMENT_SET_NO": 999, "REV_AT_EPOCH": 5119, "BSTAR": 0, "MEAN_MOTION_DOT": -6e-08, "MEAN_MOTION_DDOT": 0}, "tle": {"line1": "1 43873U 18109A   25339.81503112 -.00000006  00000+0  00000+0 0  9992", "line2": "2 43873  55.5633  99.8204 0037169 194.6796 348.9989  2.00553202 51199"}}, "geometry": {"type": "Point", "coordinates": [-28.99259830396691, -48.67858843559175]}}, {"type": "Feature", "properties": {"norad_id": 44204, "name": "BEIDOU-3 IGSO-1 (C38)", "group": "gnss", "lat": -51.47151377837004, "lon": -10.779781692059446, "alt_km": 35763.43289885165, "timestamp": "2025-12-06T09:34:17.157532+00:00", "meta": {"OBJECT_NAME": "BEIDOU-3 IGSO-1 (C38)", "OBJECT_ID": "2019-023A", "EPOCH": "2025-11-19T14:15:02.708640", "MEAN_MOTION": 1.00252177, "ECCENTRICITY": 0.0026966, "INCLINATION": 58.4003, "RA_OF_ASC_NODE": 39.8168, "ARG_OF_PERICENTER": 221.2202, "MEAN_ANOMALY": 126.9723, "EPHEMERIS_TYPE": 0, "CLASSIFICATION_TYPE": "U", "NORAD_CAT_ID": 44204, "ELEMENT_SET_NO": 999, "REV_AT_EPOCH": 510, "BSTAR": 0, "MEAN_MOTION_DOT": -2.26e-06, "MEAN_MOTION_DDOT": 0}, "tle": {"line1": "1 44204U 19023A   25323.59378135 -.00000226  00000+0  00000+0 0  9994", "line2": "2 44204  58.4003  39.8168 0026966 221.2202 126.9723  1.00252177  5102"}}, "geometry": {"type": "Point", "coordinates": [-10.779781692059446, -51.47151377837004]}}, {"type": "Feature", "properties": {"norad_id": 44231, "name": "BEIDOU-2 G8 (C01)", "group": "gnss", "lat": -1.5442847585088504, "lon": 3.620659428213814, "alt_km": 35757.503832293136, "timestamp": "2025-12-06T09:34:17.157549+00:00", "meta": {"OBJECT_NAME": "BEIDOU-2 G8 (C01)", "OBJECT_ID": "2019-027A", "EPOCH": "2025-12-05T21:13:59.223072", "MEAN_MOTION": 1.00269495, "ECCENTRICITY": 0.00084891, "INCLINATION": 1.6436, "RA_OF_ASC_NODE": 74.7098, "ARG_OF_PERICENTER": 254.8163, "MEAN_ANOMALY": 208.4654, "EPHEMERIS_TYPE": 0, "CLASSIFICATION_TYPE": "U", "NORAD_CAT_ID": 44231, "ELEMENT_SET_NO": 999, "REV_AT_EPOCH": 2414, "BSTAR": 0, "MEAN_MOTION_DOT": -2.39e-06, "MEAN_MOTION_DDOT": 0}, "tle": {"line1": "1 44231U 19027A   25339.88471323 -.00000239  00000+0  00000+0 0  9994", "line2": "2 44231   1.6436  74.7098 0008489 254.8163 208.4654  1.00269495 24145"}}, "geometry": {"type": "Point", "coordinates": [3.620659428213814, -1.5442847585088504]}}, {"type": "Feature", "properties": {"norad_id": 44299, "name": "COSMOS 2534 (758)", "group": "gnss", "lat": -16.164124241277605, "lon": 27.11070202490182, "alt_km": 19130.677807315427, "timestamp": "2025-12-06T09:34:17.157560+00:00", "meta": {"OBJECT_NAME": "COSMOS 2534 (758)", "OBJECT_ID": "2019-030A", "EPOCH": "2025-12-05T09:38:44.490912", "MEAN_MOTION": 2.13101983, "ECCENTRICITY": 0.00090311, "INCLINATION": 64.3653, "RA_OF_ASC_NODE": 199.1403, "ARG_OF_PERICENTER": 283.6175, "MEAN_ANOMALY": 229.7103, "EPHEMERIS_TYPE": 0, "CLASSIFICATION_TYPE": "U", "NORAD_CAT_ID": 44299, "ELEMENT_SET_NO": 999, "REV_AT_EPOCH": 5079, "BSTAR": 0, "MEAN_MOTION_DOT": 8.7e-07, "MEAN_MOTION_DDOT": 0}, "tle": {"line1": "1 44299U 19030A   25339.40190383  .00000087  00000+0  00000+0 0  9994", "line2": "2 44299  64.3653 199.1403 0009031 283.6175 229.7103  2.13101983 50792"}}, "geometry": {"type": "Point", "coordinates": [27.11070202490182, -16.164124241277605]}}, {"type": "Feature", "properties": {"norad_id": 44337, "name": "BEIDOU-3 IGSO-2 (C39)", "group": "gnss", "lat": 1.77065661779377, "lon": -20.685971371373626, "alt_km": 35641.95945298483, "timestamp": "2025-12-06T09:34:17.157572+00:00", "meta": {"OBJECT_NAME": "BEIDOU-3 IGSO-2 (C39)", "OBJECT_ID": "2019-035A", "EPOCH": "2025-12-01T05:17:49.661952", "MEAN_MOTION": 1.00274502, "ECCENTRICITY": 0.00376064, "INCLINATION": 55.2223, "RA_OF_ASC_NODE": 160.6035, "ARG_OF_PERICENTER": 202.2564, "MEAN_ANOMALY": 266.4761, "EPHEMERIS_TYPE": 0, "CLASSIFICATION_TYPE": "U", "NORAD_CAT_ID": 44337, "ELEMENT_SET_NO": 999, "REV_AT_EPOCH": 2368, "BSTAR": 0, "MEAN_MOTION_DOT": -2.5e-07, "MEAN_MOTION_DDOT": 0}, "tle": {"line1": "1 44337U 19035A   25335.22071368 -.00000025  00000+0  00000+0 0  9992", "line2": "2 44337  55.2223 160.6035 0037606 202.2564 266.4761  1.00274502 23688"}}, "geometry": {"type": "Point", "coordinates": [-20.685971371373626, 1.77065661779377]}}, {"type": "Feature", "properties": {"norad_id": 44506, "name": "GPS BIII-2  (PRN 18)", "group": "gnss", "lat": 31.059495477855073, "lon": 134.5464635958489, "alt_km": 20094.679363298248, "timestamp": "2025-12-06T09:34:17.157584+00:00", "meta": {"OBJECT_NAME": "GPS BIII-2  (PRN 18)", "OBJECT_ID": "2019-056A", "EPOCH": "2025-12-05T10:37:28.856640", "MEAN_MOTION": 2.00565628, "ECCENTRICITY": 0.00578088, "INCLINATION": 55.7239, "RA_OF_ASC_NODE": 338.8423, "ARG_OF_PERICENTER": 198.4648, "MEAN_ANOMALY": 333.0445, "EPHEMERIS_TYPE": 0, "CLASSIFICATION_TYPE": "U", "NORAD_CAT_ID": 44506, "ELEMENT_SET_NO": 999, "REV_AT_EPOCH": 4618, "BSTAR": 0, "MEAN_MOTION_DOT": -7.6e-07, "MEAN_MOTION_DDOT": 0}, "tle": {"line1": "1 44506U 19056A   25339.44269510 -.00000076  00000+0  00000+0 0  9995", "line2": "2 44506  55.7239 338.8423 0057808 198.4648 333.0445  2.00565628 46186"}}, "geometry": {"type": "Point", "coordinates": [134.5464635958489, 31.059495477855073]}}]}